[{"OBJECT_NAME":"TIANQI-6","OBJECT_ID":"2020-076D","EPOCH":"2026-03-09T22:50:24.728640","MEAN_MOTION":15.06417552,"ECCENTRICITY":0.00106023,"INCLINATION":34.9994,"RA_OF_ASC_NODE":297.1791,"ARG_OF_PERICENTER":9.4595,"MEAN_ANOMALY":350.6312,"EPHEMERIS_TYPE":0,"CLASSIFICATION_TYPE":"U","NORAD_CAT_ID":46810,"ELEMENT_SET_NO":999,"REV_AT_EPOCH":29360,"BSTAR":0.00037023286,"MEAN_MOTION_DOT":5.552e-5,"MEAN_MOTION_DDOT":0},{"OBJECT_NAME":"STARLINK-4408","OBJECT_ID":"2022-084T","EPOCH":"2026-03-09T17:17:47.121792","MEAN_MOTION":15.05656331,"ECCENTRICITY":9.094e-5,"INCLINATION":97.6044,"RA_OF_ASC_NODE":131.2353,"ARG_OF_PERICENTER":120.4413,"MEAN_ANOMALY":239.6903,"EPHEMERIS_TYPE":0,"CLASSIFICATION_TYPE":"U","NORAD_CAT_ID":53206,"ELEMENT_SET_NO":999,"REV_AT_EPOCH":19938,"BSTAR":-7.7074532e-5,"MEAN_MOTION_DOT":-1.173e-5,"MEAN_MOTION_DDOT":0}]
